SL-4 R/B                
1 39679U 14021B   25339.26647002  .00021979  00000+0  51980-3 0  9994
2 39679  51.6089  76.9058 0102389 119.2625 241.8640 15.36395447641743
ALOS-2                  
1 39766U 14029A   25339.30337437  .00003583  00000+0  48658-3 0  9991
2 39766  97.9238  74.2558 0001485 106.6429 253.4946 14.79456881622914
YAOGAN-29               
1 41038U 15069A   25339.32960559  .00000958  00000+0  12497-3 0  9995
2 41038  98.0226   2.4773 0000614   0.4437 359.6777 14.82870076541891
ASTRO-H (HITOMI)        
1 41337U 16012A   25338.09288697  .00006332  00000+0  38189-3 0  9993
2 41337  30.9999 253.1139 0009461  91.0212 269.1510 15.09266666537778
HXMT (HUIYAN)           
1 42758U 17034A   25339.28071200  .00007522  00000+0  38959-3 0  9995
2 42758  43.0117 181.0185 0032595 355.6181   4.4377 15.16157179468209
CZ-2C R/B               
1 43521U 18054D   25338.10350592  .00151724  00000+0  10936-2 0  9999
2 43521  35.1338 239.3732 0017164  52.5099 307.7191 15.71910345413695
SAOCOM 1A               
1 43641U 18076A   25339.24573112  .00000959  00000+0  12696-3 0  9996
2 43641  97.8846 163.7772 0001555  85.5074 274.6317 14.82165051387371
H-2A R/B                
1 43682U 18084L   25339.27165488  .00030009  00000+0  81957-3 0  9991
2 43682  98.8774 171.8048 0027984 352.2092   7.8709 15.36976001391259
SAOCOM 1B               
1 46265U 20059A   25339.27698366  .00000971  00000+0  12850-3 0  9993
2 46265  97.8843 162.9090 0001267  87.6632 272.4727 14.82147287284761
CSS (TIANHE)            
1 48274U 21035A   25339.28337955  .00034071  00000+0  43162-3 0  9993
2 48274  41.4682  61.9587 0009834 333.0075  27.0251 15.58716050262862
COSMOS 2550             
1 48865U 21056A   25339.55321757 -.00000194  00000+0 -54960-7 0  9998
2 48865  67.1428 325.6713 0008394 269.9188  90.1005 15.33827034249023
CZ-2C R/B               
1 52794U 22058K   25339.32047493  .00042815  00000+0  77538-3 0  9990
2 52794  50.1910  81.3709 0046217 167.8364 192.3731 15.47977537195486
